      2.10          N: GNSS NAV DATA                        RINEX VERSION / TYPE
fic2rin                                 02/19/2024 00:17:59 PGM / RUN BY / DATE
                                                            END OF HEADER
8  24  2 18  1 59 44.0 -.167555175722D-03 -.181898940355D-11  .000000000000D+00
     .370000000000D+02  .700312500000D+02  .454983237592D-08 -.111640296145D+01
     .361166894436D-05  .935049459804D-02  .576116144657D-05  .515359405136D+04
     .718400000000D+04  .135973095894D-06  .269780919086D+01 -.113621354103D-06
     .954829708764D+00  .261187500000D+03  .322135446120D+00 -.812855287257D-08
     .471448209139D-10  .100000000000D+01  .230200000000D+04  .000000000000D+00
     .240000000000D+01  .000000000000D+00  .512227416039D-08  .370000000000D+02
     .000000000000D+00  .400000000000D+01
1  24  2 18  2  0  0.0  .169991981238D-03  .159161572810D-11  .000000000000D+00
     .890000000000D+02 -.123750000000D+02  .385980363346D-08  .285145854484D+01
    -.799074769020D-06  .127383490326D-01  .364147126675D-05  .515400713348D+04
     .720000000000D+04  .558793544769D-08 -.248534736872D+01 -.203028321266D-06
     .990701406576D+00  .323687500000D+03  .998415560861D+00 -.769710632966D-08
    -.285726187357D-11  .100000000000D+01  .230200000000D+04  .000000000000D+00
     .485000000000D+01  .630000000000D+02  .512227416039D-08  .890000000000D+02
     .000000000000D+00  .400000000000D+01
30 24  2 18 11 59 44.0 -.430986285210D-03  .500222085975D-11  .000000000000D+00
     .140000000000D+02  .122812500000D+02  .544951270836D-08  .118848061045D+01
     .836327672005D-06  .681844865903D-02  .714510679245D-05  .515368269920D+04
     .431840000000D+05 -.204890966415D-07  .637812345913D+00  .968575477600D-07
     .935536181911D+00  .230906250000D+03 -.252920810020D+01 -.839856411962D-08
    -.603596570791D-10  .100000000000D+01  .230200000000D+04  .000000000000D+00
     .240000000000D+01  .000000000000D+00  .372529029846D-08  .140000000000D+02
     .360000000000D+05  .400000000000D+01
20 24  2 18 11 59 44.0  .387045089155D-03 -.136424205266D-11  .000000000000D+00
     .130000000000D+02 -.105625000000D+03  .454554648311D-08  .268190310055D+01
    -.541843473911D-05  .385508791078D-02  .486709177494D-05  .515372752571D+04
     .431840000000D+05 -.428408384323D-07 -.163411254771D+01 -.502914190292D-07
     .952158282837D+00  .279968750000D+03 -.262831198160D+01 -.815819696451D-08
     .328585115460D-10  .100000000000D+01  .230200000000D+04  .000000000000D+00
     .240000000000D+01  .000000000000D+00 -.838190317154D-08  .130000000000D+02
     .360000000000D+05  .400000000000D+01
2  24  2 18 12  0  0.0 -.483552925289D-03  .591171556152D-11  .000000000000D+00
     .450000000000D+02  .189375000000D+02  .430410785480D-08 -.182295095658D+01
     .146217644215D-05  .162057938287D-01  .318698585033D-05  .515371504021D+04
     .432000000000D+05 -.558793544769D-07 -.259011996258D+01  .350177288055D-06
     .967692180446D+00  .323093750000D+03 -.123873958531D+01 -.813069581897D-08
     .116076263614D-09  .100000000000D+01  .230200000000D+04  .000000000000D+00
     .240000000000D+01  .000000000000D+00 -.176951289177D-07  .450000000000D+02
     .360000000000D+05  .400000000000D+01
1  24  2 18 12  0  0.0  .170048326254D-03  .159161572810D-11  .000000000000D+00
     .130000000000D+02 -.750000000000D+00  .386230373760D-08  .181805677878D+01
    -.175088644028D-06  .127413331065D-01  .328756868839D-05  .515400661278D+04
     .432000000000D+05 -.257045030594D-06 -.248563634185D+01 -.229105353355D-06
     .990702047334D+00  .333093750000D+03  .998501617017D+00 -.798926135623D-08
     .892894335490D-10  .100000000000D+01  .230200000000D+04  .000000000000D+00
     .340000000000D+01  .630000000000D+02  .512227416039D-08  .130000000000D+02
     .360000000000D+05  .400000000000D+01
6  24  2 18 12  0  0.0  .402286183089D-03 -.150066625793D-10  .000000000000D+00
     .500000000000D+01  .812500000000D+00  .386230373760D-08  .219316222542D+01
     .182539224625D-06  .315480958670D-02  .250339508057D-05  .515356743431D+04
     .432000000000D+05 -.130385160446D-07 -.249403134552D+01  .335276126862D-07
     .989814954292D+00  .345843750000D+03 -.767487320882D+00 -.795568852922D-08
     .364300888880D-10  .100000000000D+01  .230200000000D+04  .000000000000D+00
     .240000000000D+01  .000000000000D+00  .372529029846D-08  .500000000000D+01
     .360000000000D+05  .400000000000D+01
5  24  2 18 12  0  0.0 -.162266660482D-03 -.136424205266D-11  .000000000000D+00
     .250000000000D+02 -.104812500000D+03  .415910181471D-08 -.180547040070D+01
    -.529736280441D-05  .567355507519D-02  .556185841560D-05  .515356749153D+04
     .432000000000D+05  .106170773506D-06 -.150693547318D+01  .316649675369D-07
     .969675151274D+00  .271218750000D+03  .123058024165D+01 -.790675791963D-08
     .825034365993D-10  .100000000000D+01  .230200000000D+04  .000000000000D+00
     .240000000000D+01  .000000000000D+00 -.111758708954D-07  .250000000000D+02
     .360000000000D+05  .400000000000D+01
7  24  2 18 12  0  0.0 -.648368149996D-04 -.898126018001D-11  .000000000000D+00
     .680000000000D+02  .684375000000D+01  .513592821774D-08  .130383588348D+01
     .379979610443D-06  .179800773039D-01  .777095556259D-05  .515366223335D+04
     .432000000000D+05 -.365078449249D-06  .635730478898D+00  .856816768646D-07
     .950402623147D+00  .232156250000D+03 -.214984587794D+01 -.835927676886D-08
    -.850035407387D-10  .100000000000D+01  .230200000000D+04  .000000000000D+00
     .240000000000D+01  .000000000000D+00 -.111758708954D-07  .680000000000D+02
     .360000000000D+05  .400000000000D+01
15 24  2 18 12  0  0.0  .128966290504D-03  .397903932026D-11  .000000000000D+00
     .220000000000D+02 -.610312500000D+02  .501163732624D-08 -.310602509791D+01
    -.330805778503D-05  .154517344199D-01  .867806375027D-05  .515360967636D+04
     .432000000000D+05  .260770320892D-06 -.561368890010D+00 -.158324837685D-06
     .934767599863D+00  .195531250000D+03  .129086762088D+01 -.787247077715D-08
     .324299222650D-09  .100000000000D+01  .230200000000D+04  .000000000000D+00
     .240000000000D+01  .000000000000D+00 -.102445483208D-07  .220000000000D+02
     .360000000000D+05  .400000000000D+01
8  24  2 18 12  0  0.0 -.167621765286D-03 -.181898940355D-11  .000000000000D+00
     .630000000000D+02  .768125000000D+02  .445018536808D-08 -.214654636423D+01
     .393204391003D-05  .935417495202D-02  .646337866783D-05  .515359295464D+04
     .432000000000D+05 -.372529029846D-08  .269751702271D+01 -.819563865662D-07
     .954829022656D+00  .254625000000D+03  .322570055675D+00 -.796854620765D-08
     .107147320259D-11  .100000000000D+01  .230200000000D+04  .000000000000D+00
     .240000000000D+01  .000000000000D+00  .512227416039D-08  .630000000000D+02
     .360000000000D+05  .400000000000D+01
4  24  2 18 12  0  0.0  .294692814350D-03  .932232069317D-11  .000000000000D+00
     .204000000000D+03 -.385312500000D+02  .446590030839D-08 -.240637090673D+01
    -.206381082535D-05  .283404544462D-02  .920891761780D-05  .515358159065D+04
     .432000000000D+05 -.428408384323D-07 -.377316723385D+00 -.279396772385D-07
     .964638259958D+00  .207937500000D+03 -.297476523407D+01 -.780639659632D-08
     .381801617856D-09  .100000000000D+01  .230200000000D+04  .000000000000D+00
     .240000000000D+01  .000000000000D+00 -.465661287308D-08  .460000000000D+03
     .360000000000D+05  .400000000000D+01
25 24  2 18 12  0  0.0  .488949008286D-03  .113686837722D-11  .000000000000D+00
     .200000000000D+02  .330625000000D+02  .481270046829D-08  .490676944813D+00
     .180490314960D-05  .118301825132D-01  .848807394505D-05  .515361008644D+04
     .432000000000D+05 -.223517417908D-06  .166597537600D+01  .931322574615D-07
     .950652912338D+00  .210875000000D+03  .107717579624D+01 -.820605610089D-08
    -.510378402166D-09  .100000000000D+01  .230200000000D+04  .000000000000D+00
     .240000000000D+01  .000000000000D+00  .558793544769D-08  .200000000000D+02
     .360000000000D+05  .400000000000D+01
13 24  2 18 12  0  0.0  .626646913588D-03  .352429196937D-11  .000000000000D+00
     .170000000000D+02 -.362187500000D+02  .429946480425D-08 -.243650659053D+01
    -.196136534214D-05  .780514650978D-02  .895746052265D-05  .515365525627D+04
     .432000000000D+05  .135973095894D-06 -.271703541177D+00 -.596046447754D-07
     .971346615640D+00  .211031250000D+03  .937500123100D+00 -.761424573533D-08
     .419303179946D-09  .100000000000D+01  .230200000000D+04  .000000000000D+00
     .240000000000D+01  .000000000000D+00 -.111758708954D-07  .170000000000D+02
     .360000000000D+05  .400000000000D+01
9  24  2 18 12  0  0.0  .962414778769D-04  .127329258248D-10  .000000000000D+00
     .900000000000D+02 -.452187500000D+02  .464055044041D-08 -.169439992841D+01
    -.226683914661D-05  .277339702006D-02  .924617052078D-05  .515372117996D+04
     .432000000000D+05 -.353902578354D-07 -.436057809912D+00  .838190317154D-07
     .958117517669D+00  .203906250000D+03  .201254658502D+01 -.790068623815D-08
     .368943939425D-09  .100000000000D+01  .230200000000D+04  .000000000000D+00
     .240000000000D+01  .000000000000D+00  .139698386192D-08  .900000000000D+02
     .360000000000D+05  .400000000000D+01
24 24  2 18 12  0  0.0 -.433692242950D-03 -.613908923697D-11  .000000000000D+00
     .720000000000D+02  .556250000000D+01  .532486465913D-08  .234908388617D+01
     .521540641785D-07  .150949902600D-01  .704638659954D-05  .515372064781D+04
     .432000000000D+05 -.316649675369D-07  .540412557804D+00 -.314787030220D-06
     .934128644059D+00  .227406250000D+03  .967688068184D+00 -.805640701026D-08
     .111433213069D-09  .100000000000D+01  .230200000000D+04  .000000000000D+00
     .240000000000D+01  .000000000000D+00  .232830643654D-08  .720000000000D+02
     .360000000000D+05  .400000000000D+01
